{"type": "FeatureCollection", "features": [ {"type": "Feature", "properties": {"norad_id": 41836, "name": "HIMAWARI-9", "group": "weather", "lat": 0.02238410362295513, "lon": -12.899888291633921, "alt_km": 35779.59811596698, "timestamp": "2025-12-02T08:59:32.362279+00:00", "meta": {"OBJECT_NAME": "HIMAWARI-9", "OBJECT_ID": "2016-064A", "EPOCH": "2025-12-01T20:24:38.619936", "MEAN_MOTION": 1.00272319, "ECCENTRICITY": 0.0002309, "INCLINATION": 0.0209, "RA_OF_ASC_NODE": 319.9176, "ARG_OF_PERICENTER": 338.5098, "MEAN_ANOMALY": 219.4399, "EPHEMERIS_TYPE": 0, "CLASSIFICATION_TYPE": "U", "NORAD_CAT_ID": 41836, "ELEMENT_SET_NO": 999, "REV_AT_EPOCH": 3323, "BSTAR": 0, "MEAN_MOTION_DOT": 0, "MEAN_MOTION_DDOT": 0}, "tle": {"line1": "1 41836U 16064A   25335.85044699  .00000000  00000+0  00000+0 0  9990", "line2": "2 41836   0.0209 319.9176 0002309 338.5098 219.4399  1.00272319 33234"}}, "geometry": {"type": "Point", "coordinates": [-12.899888291633921, 0.02238410362295513]}}, {"type": "Feature", "properties": {"norad_id": 41866, "name": "GOES 16", "group": "weather", "lat": 0.01827950772934099, "lon": 101.65108486491178, "alt_km": 35799.25424124108, "timestamp": "2025-12-02T08:59:32.362292+00:00", "meta": {"OBJECT_NAME": "GOES 16", "OBJECT_ID": "2016-071A", "EPOCH": "2025-12-02T03:00:47.393856", "MEAN_MOTION": 1.00270511, "ECCENTRICITY": 0.0003366, "INCLINATION": 0.0552, "RA_OF_ASC_NODE": 108.4707, "ARG_OF_PERICENTER": 147.2579, "MEAN_ANOMALY": 116.0362, "EPHEMERIS_TYPE": 0, "CLASSIFICATION_TYPE": "U", "NORAD_CAT_ID": 41866, "ELEMENT_SET_NO": 999, "REV_AT_EPOCH": 3312, "BSTAR": 0, "MEAN_MOTION_DOT": -7e-07, "MEAN_MOTION_DDOT": 0}, "tle": {"line1": "1 41866U 16071A   25336.12554854 -.00000070  00000+0  00000+0 0  9999", "line2": "2 41866   0.0552 108.4707 0003366 147.2579 116.0362  1.00270511 33124"}}, "geometry": {"type": "Point", "coordinates": [101.65108486491178, 0.01827950772934099]}}, {"type": "Feature", "properties": {"norad_id": 41882, "name": "FENGYUN 4A", "group": "weather", "lat": -1.6769000499971123, "lon": -29.914873599625633, "alt_km": 35790.26457938163, "timestamp": "2025-12-02T08:59:32.362304+00:00", "meta": {"OBJECT_NAME": "FENGYUN 4A", "OBJECT_ID": "2016-077A", "EPOCH": "2025-12-01T22:57:48.238848", "MEAN_MOTION": 1.00279059, "ECCENTRICITY": 0.0004988, "INCLINATION": 1.8195, "RA_OF_ASC_NODE": 82.4934, "ARG_OF_PERICENTER": 141.0173, "MEAN_ANOMALY": 315.6982, "EPHEMERIS_TYPE": 0, "CLASSIFICATION_TYPE": "U", "NORAD_CAT_ID": 41882, "ELEMENT_SET_NO": 999, "REV_AT_EPOCH": 3295, "BSTAR": 0, "MEAN_MOTION_DOT": -3.35e-06, "MEAN_MOTION_DDOT": 0}, "tle": {"line1": "1 41882U 16077A   25335.95680832 -.00000335  00000+0  00000+0 0  9993", "line2": "2 41882   1.8195  82.4934 0004988 141.0173 315.6982  1.00279059 32951"}}, "geometry": {"type": "Point", "coordinates": [-29.914873599625633, -1.6769000499971123]}}, {"type": "Feature", "properties": {"norad_id": 41884, "name": "CYGFM05", "group": "weather", "lat": 27.192254074425303, "lon": -112.53278105657976, "alt_km": 415.5888841976739, "timestamp": "2025-12-02T08:59:32.362316+00:00", "meta": {"OBJECT_NAME": "CYGFM05", "OBJECT_ID": "2016-078A", "EPOCH": "2025-12-01T20:03:25.166016", "MEAN_MOTION": 15.47023859, "ECCENTRICITY": 0.0009408, "INCLINATION": 34.9578, "RA_OF_ASC_NODE": 118.3257, "ARG_OF_PERICENTER": 77.6657, "MEAN_ANOMALY": 282.5117, "EPHEMERIS_TYPE": 0, "CLASSIFICATION_TYPE": "U", "NORAD_CAT_ID": 41884, "ELEMENT_SET_NO": 999, "REV_AT_EPOCH": 49807, "BSTAR": 0.00043588, "MEAN_MOTION_DOT": 0.00022753, "MEAN_MOTION_DDOT": 0}, "tle": {"line1": "1 41884U 16078A   25335.83570794  .00022753  00000+0  43588-3 0  9997", "line2": "2 41884  34.9578 118.3257 0009408  77.6657 282.5117 15.47023859498077"}}, "geometry": {"type": "Point", "coordinates": [-112.53278105657976, 27.192254074425303]}}, {"type": "Feature", "properties": {"norad_id": 41885, "name": "CYGFM04", "group": "weather", "lat": -34.79893872083307, "lon": -5.425883657121255, "alt_km": 424.9508463094544, "timestamp": "2025-12-02T08:59:32.362327+00:00", "meta": {"OBJECT_NAME": "CYGFM04", "OBJECT_ID": "2016-078B", "EPOCH": "2025-12-01T17:56:12.662592", "MEAN_MOTION": 15.49568378, "ECCENTRICITY": 0.0008511, "INCLINATION": 34.9335, "RA_OF_ASC_NODE": 93.9902, "ARG_OF_PERICENTER": 107.3398, "MEAN_ANOMALY": 252.8256, "EPHEMERIS_TYPE": 0, "CLASSIFICATION_TYPE": "U", "NORAD_CAT_ID": 41885, "ELEMENT_SET_NO": 999, "REV_AT_EPOCH": 49823, "BSTAR": 0.0011322, "MEAN_MOTION_DOT": 0.00065033, "MEAN_MOTION_DDOT": 0}, "tle": {"line1": "1 41885U 16078B   25335.74736878  .00065033  00000+0  11322-2 0  9993", "line2": "2 41885  34.9335  93.9902 0008511 107.3398 252.8256 15.49568378498235"}}, "geometry": {"type": "Point", "coordinates": [-5.425883657121255, -34.79893872083307]}}, {"type": "Feature", "properties": {"norad_id": 41886, "name": "CYGFM02", "group": "weather", "lat": -25.157401783857726, "lon": -49.39067285579536, "alt_km": 418.0929390678193, "timestamp": "2025-12-02T08:59:32.362338+00:00", "meta": {"OBJECT_NAME": "CYGFM02", "OBJECT_ID": "2016-078C", "EPOCH": "2025-12-02T00:17:30.788160", "MEAN_MOTION": 15.5101423, "ECCENTRICITY": 0.0010129, "INCLINATION": 34.9428, "RA_OF_ASC_NODE": 90.7182, "ARG_OF_PERICENTER": 109.3864, "MEAN_ANOMALY": 250.7953, "EPHEMERIS_TYPE": 0, "CLASSIFICATION_TYPE": "U", "NORAD_CAT_ID": 41886, "ELEMENT_SET_NO": 999, "REV_AT_EPOCH": 49840, "BSTAR": 0.00045957, "MEAN_MOTION_DOT": 0.0002765, "MEAN_MOTION_DDOT": 0}, "tle": {"line1": "1 41886U 16078C   25336.01216190  .00027650  00000+0  45957-3 0  9990", "line2": "2 41886  34.9428  90.7182 0010129 109.3864 250.7953 15.51014230498408"}}, "geometry": {"type": "Point", "coordinates": [-49.39067285579536, -25.157401783857726]}}, {"type": "Feature", "properties": {"norad_id": 41887, "name": "CYGFM01", "group": "weather", "lat": 16.689666518561395, "lon": -88.20145241558771, "alt_km": 418.6775978686337, "timestamp": "2025-12-02T08:59:32.362349+00:00", "meta": {"OBJECT_NAME": "CYGFM01", "OBJECT_ID": "2016-078D", "EPOCH": "2025-12-02T02:09:23.269824", "MEAN_MOTION": 15.47596984, "ECCENTRICITY": 0.0009064, "INCLINATION": 34.9408, "RA_OF_ASC_NODE": 119.091, "ARG_OF_PERICENTER": 71.3523, "MEAN_ANOMALY": 288.8182, "EPHEMERIS_TYPE": 0, "CLASSIFICATION_TYPE": "U", "NORAD_CAT_ID": 41887, "ELEMENT_SET_NO": 999, "REV_AT_EPOCH": 49805, "BSTAR": 0.00045402, "MEAN_MOTION_DOT": 0.00024183, "MEAN_MOTION_DDOT": 0}, "tle": {"line1": "1 41887U 16078D   25336.08985266  .00024183  00000+0  45402-3 0  9998", "line2": "2 41887  34.9408 119.0910 0009064  71.3523 288.8182 15.47596984498050"}}, "geometry": {"type": "Point", "coordinates": [-88.20145241558771, 16.689666518561395]}}, {"type": "Feature", "properties": {"norad_id": 41888, "name": "CYGFM08", "group": "weather", "lat": 14.677749769282109, "lon": -101.69109704559358, "alt_km": 412.76836570916566, "timestamp": "2025-12-02T08:59:32.362360+00:00", "meta": {"OBJECT_NAME": "CYGFM08", "OBJECT_ID": "2016-078E", "EPOCH": "2025-12-01T18:24:36.537984", "MEAN_MOTION": 15.48751854, "ECCENTRICITY": 0.001064, "INCLINATION": 34.9442, "RA_OF_ASC_NODE": 104.3169, "ARG_OF_PERICENTER": 94.5442, "MEAN_ANOMALY": 265.6495, "EPHEMERIS_TYPE": 0, "CLASSIFICATION_TYPE": "U", "NORAD_CAT_ID": 41888, "ELEMENT_SET_NO": 999, "REV_AT_EPOCH": 49823, "BSTAR": 0.00042339, "MEAN_MOTION_DOT": 0.00023493, "MEAN_MOTION_DDOT": 0}, "tle": {"line1": "1 41888U 16078E   25335.76708956  .00023493  00000+0  42339-3 0  9991", "line2": "2 41888  34.9442 104.3169 0010640  94.5442 265.6495 15.48751854498231"}}, "geometry": {"type": "Point", "coordinates": [-101.69109704559358, 14.677749769282109]}}, {"type": "Feature", "properties": {"norad_id": 41890, "name": "CYGFM07", "group": "weather", "lat": 29.799265161664493, "lon": -145.71528052533358, "alt_km": 406.9875757322807, "timestamp": "2025-12-02T08:59:32.362371+00:00", "meta": {"OBJECT_NAME": "CYGFM07", "OBJECT_ID": "2016-078G", "EPOCH": "2025-12-02T00:44:47.459040", "MEAN_MOTION": 15.49334806, "ECCENTRICITY": 0.0008846, "INCLINATION": 34.9467, "RA_OF_ASC_NODE": 91.629, "ARG_OF_PERICENTER": 116.2049, "MEAN_ANOMALY": 243.9583, "EPHEMERIS_TYPE": 0, "CLASSIFICATION_TYPE": "U", "NORAD_CAT_ID": 41890, "ELEMENT_SET_NO": 999, "REV_AT_EPOCH": 49829, "BSTAR": 0.00046562, "MEAN_MOTION_DOT": 0.0002637, "MEAN_MOTION_DDOT": 0}, "tle": {"line1": "1 41890U 16078G   25336.03110485  .00026370  00000+0  46562-3 0  9998", "line2": "2 41890  34.9467  91.6290 0008846 116.2049 243.9583 15.49334806498292"}}, "geometry": {"type": "Point", "coordinates": [-145.71528052533358, 29.799265161664493]}}, {"type": "Feature", "properties": {"norad_id": 41891, "name": "CYGFM03", "group": "weather", "lat": -22.519920966929014, "lon": 54.86016827789036, "alt_km": 424.8604315202829, "timestamp": "2025-12-02T08:59:32.362383+00:00", "meta": {"OBJECT_NAME": "CYGFM03", "OBJECT_ID": "2016-078H", "EPOCH": "2025-12-01T17:42:27.482112", "MEAN_MOTION": 15.49224271, "ECCENTRICITY": 0.0008241, "INCLINATION": 34.9416, "RA_OF_ASC_NODE": 95.4619, "ARG_OF_PERICENTER": 98.9519, "MEAN_ANOMALY": 261.2136, "EPHEMERIS_TYPE": 0, "CLASSIFICATION_TYPE": "U", "NORAD_CAT_ID": 41891, "ELEMENT_SET_NO": 999, "REV_AT_EPOCH": 49822, "BSTAR": 0.00044221, "MEAN_MOTION_DOT": 0.00024934, "MEAN_MOTION_DDOT": 0}, "tle": {"line1": "1 41891U 16078H   25335.73781808  .00024934  00000+0  44221-3 0  9992", "line2": "2 41891  34.9416  95.4619 0008241  98.9519 261.2136 15.49224271498225"}}, "geometry": {"type": "Point", "coordinates": [54.86016827789036, -22.519920966929014]}}]}